COSMOS 1408 DEB         
1 50032U 82092RU  26088.03774003  .00005531  00000+0  10840-3 0  9998
2 50032  82.5626 309.4552 0015264 180.9336 179.1888 15.46973841242465
COSMOS 1408 DEB         
1 50058U 82092SW  26088.11152797  .00052601  00000+0  38012-3 0  9996
2 50058  82.6108 317.2972 0013927  62.2887 297.9787 15.73151162244710
COSMOS 1408 DEB         
1 50404U 82092ADS 26088.03448451  .00186269  00000+0  36616-2 0  9992
2 50404  82.1914 104.1444 0110829 185.9846 174.0085 15.40188611228147
COSMOS 1408 DEB         
1 50621U 82092ALR 26088.09210348  .00038321  00000+0  40190-3 0  9999
2 50621  82.5698 322.8879 0025166 114.8172 245.5708 15.63787077239081
